OBJECT_NAME,OBJECT_ID,EPOCH,MEAN_MOTION,ECCENTRICITY,INCLINATION,RA_OF_ASC_NODE,ARG_OF_PERICENTER,MEAN_ANOMALY,EPHEMERIS_TYPE,CLASSIFICATION_TYPE,NORAD_CAT_ID,ELEMENT_SET_NO,REV_AT_EPOCH,BSTAR,MEAN_MOTION_DOT,MEAN_MOTION_DDOT
STARLINK-35053,2025-207T,2026-06-05T01:50:23.357472,15.05635784,.0002193,97.4053,224.2304,165.0287,195.1005,0,U,65609,999,4125,-.37312793E-3,-.5436E-4,0
STARLINK-35178,2025-207U,2026-06-05T10:28:45.976800,15.05670984,.0002022,97.4022,224.5076,137.9247,222.2136,0,U,65610,999,4146,.38838E-3,.5553E-4,0
STARLINK-35186,2025-207V,2026-06-05T01:26:26.700864,15.05666759,.0001453,97.4001,224.0932,92.4069,267.7325,0,U,65611,999,4140,.5787E-3,.8305E-4,0
STARLINK-35154,2025-207W,2026-06-05T11:16:36.812064,15.05658767,.0001639,97.4004,224.6143,92.7315,267.4100,0,U,65612,999,4131,.23907E-3,.3394E-4,0
STARLINK-35162,2025-207X,2026-06-05T05:13:45.028128,15.05653549,.0001154,97.4025,224.3445,127.3872,232.7461,0,U,65613,999,4143,.20655E-3,.2924E-4,0
STARLINK-35206,2025-207Y,2026-06-05T10:36:43.788672,15.05656798,.0002569,97.3983,224.4988,109.7345,250.4160,0,U,65614,999,4135,.26941E-3,.3832E-4,0
STARLINK-35174,2025-207Z,2026-06-04T17:15:59.138208,15.05658239,.0004322,97.4029,223.7845,141.0876,219.0663,0,U,65615,999,4135,.36112E-3,.5158E-4,0
HJS-7A,2025-209A,2026-06-05T09:08:51.531072,13.41462891,.0000979,50.0003,42.5511,35.0283,325.0659,0,U,65617,999,3608,.12132E-3,-.6E-6,0
HJS-7B,2025-209B,2026-06-01T22:49:33.661920,13.41462817,.00019549,50.0003,55.0949,55.7528,304.3534,0,U,65618,999,3559,.13265533E-3,-.54E-6,0
HJS-7C,2025-209C,2026-06-05T09:00:26.669088,13.41461580,.0002507,50.0009,41.8822,77.9989,282.1170,0,U,65619,999,3605,.17449E-3,-.31E-6,0
HJS-7D,2025-209D,2026-06-05T08:54:51.410304,13.41471138,.000523,50.0014,41.8406,2.2065,357.8835,0,U,65620,999,3605,.19048E-3,-.22E-6,0
STARLINK-35239,2025-210B,2026-06-05T13:08:10.610592,15.34423995,.0002979,53.1589,257.4910,99.7600,260.3739,0,U,65623,999,4120,.80646E-3,.26992E-3,0
STARLINK-35151,2025-210C,2026-06-05T13:04:27.660576,15.34464287,.000076,53.1595,256.0515,105.1974,254.9112,0,U,65624,999,4114,.12301E-2,.41501E-3,0
STARLINK-35153,2025-210D,2026-06-05T12:59:05.040384,15.34437159,.0004229,53.1597,257.4537,84.6229,275.5256,0,U,65625,999,4112,.87144E-3,.29221E-3,0
STARLINK-35217,2025-210F,2026-06-05T13:54:58.811040,15.30246396,.000142,53.1587,259.1095,96.5692,263.5470,0,U,65627,999,4118,.89986E-3,.26425E-3,0
STARLINK-35128,2025-210G,2026-06-05T15:18:19.668096,15.34404139,.0001,53.1565,257.3467,91.7190,268.3927,0,U,65628,999,4121,.99727E-3,.33473E-3,0
STARLINK-35135,2025-210H,2026-06-05T11:10:16.361760,15.34451907,.0000761,53.1609,258.4100,83.8427,276.2662,0,U,65629,999,4118,.12274E-2,.4139E-3,0
STARLINK-35104,2025-210K,2026-06-05T17:58:39.059616,15.34409499,.000099,53.1586,256.6194,74.1374,285.9738,0,U,65631,999,4122,.77686E-3,.2597E-3,0
STARLINK-35150,2025-210P,2026-06-05T13:53:27.379104,15.30212581,.0001251,53.1579,259.0989,87.5327,272.5817,0,U,65635,999,4118,.77617E-3,.22708E-3,0
STARLINK-35209,2025-210Q,2026-06-05T11:13:18.162912,15.34386300,.0000906,53.1602,258.4173,104.4977,255.6126,0,U,65636,999,4118,.68599E-3,.22862E-3,0
STARLINK-35127,2025-210T,2026-06-05T18:04:42.205728,15.34420344,.0001062,53.1577,256.6425,96.1830,263.9294,0,U,65639,999,4123,.93348E-3,.31315E-3,0
