STARLINK-35053          
1 65609U 25207T   26156.07665923 -.00005436  00000+0 -37313-3 0  9999
2 65609  97.4053 224.2304 0002193 165.0287 195.1005 15.05635784 41254
STARLINK-35178          
1 65610U 25207U   26156.43664325  .00005553  00000+0  38838-3 0  9997
2 65610  97.4022 224.5076 0002022 137.9247 222.2136 15.05670984 41467
STARLINK-35186          
1 65611U 25207V   26156.06003126  .00008305  00000+0  57870-3 0  9998
2 65611  97.4001 224.0932 0001453  92.4069 267.7325 15.05666759 41408
STARLINK-35154          
1 65612U 25207W   26156.46987051  .00003394  00000+0  23907-3 0  9998
2 65612  97.4004 224.6143 0001639  92.7315 267.4100 15.05658767 41313
STARLINK-35162          
1 65613U 25207X   26156.21788227  .00002924  00000+0  20655-3 0  9991
2 65613  97.4025 224.3445 0001154 127.3872 232.7461 15.05653549 41435
STARLINK-35206          
1 65614U 25207Y   26156.44217348  .00003832  00000+0  26941-3 0  9991
2 65614  97.3983 224.4988 0002569 109.7345 250.4160 15.05656798 41354
STARLINK-35174          
1 65615U 25207Z   26155.71943447  .00005158  00000+0  36112-3 0  9991
2 65615  97.4029 223.7845 0004322 141.0876 219.0663 15.05658239 41359
HJS-7A                  
1 65617U 25209A   26156.38115198 -.00000060  00000+0  12132-3 0  9997
2 65617  50.0003  42.5511 0000979  35.0283 325.0659 13.41462891 36085
HJS-7B                  
1 65618U 25209B   26152.95108405 -.00000054  00000+0  13266-3 0  9992
2 65618  50.0003  55.0949 0001954  55.7528 304.3534 13.41462817 35590
HJS-7C                  
1 65619U 25209C   26156.37530867 -.00000031  00000+0  17449-3 0  9996
2 65619  50.0009  41.8822 0002507  77.9989 282.1170 13.41461580 36059
HJS-7D                  
1 65620U 25209D   26156.37142836 -.00000022  00000+0  19048-3 0  9990
2 65620  50.0014  41.8406 0005230   2.2065 357.8835 13.41471138 36055
STARLINK-35239          
1 65623U 25210B   26156.54734503  .00026992  00000+0  80646-3 0  9997
2 65623  53.1589 257.4910 0002979  99.7600 260.3739 15.34423995 41203
STARLINK-35151          
1 65624U 25210C   26156.54476459  .00041501  00000+0  12301-2 0  9996
2 65624  53.1595 256.0515 0000760 105.1974 254.9112 15.34464287 41145
STARLINK-35153          
1 65625U 25210D   26156.54103056  .00029221  00000+0  87144-3 0  9990
2 65625  53.1597 257.4537 0004229  84.6229 275.5256 15.34437159 41129
STARLINK-35217          
1 65627U 25210F   26156.57984735  .00026425  00000+0  89986-3 0  9995
2 65627  53.1587 259.1095 0001420  96.5692 263.5470 15.30246396 41182
STARLINK-35128          
1 65628U 25210G   26156.63772764  .00033473  00000+0  99727-3 0  9995
2 65628  53.1565 257.3467 0001000  91.7190 268.3927 15.34404139 41215
STARLINK-35135          
1 65629U 25210H   26156.46546715  .00041390  00000+0  12274-2 0  9990
2 65629  53.1609 258.4100 0000761  83.8427 276.2662 15.34451907 41184
STARLINK-35104          
1 65631U 25210K   26156.74906319  .00025970  00000+0  77686-3 0  9999
2 65631  53.1586 256.6194 0000990  74.1374 285.9738 15.34409499 41227
STARLINK-35150          
1 65635U 25210P   26156.57878911  .00022708  00000+0  77617-3 0  9990
2 65635  53.1579 259.0989 0001251  87.5327 272.5817 15.30212581 41184
STARLINK-35209          
1 65636U 25210Q   26156.46757133  .00022862  00000+0  68599-3 0  9991
2 65636  53.1602 258.4173 0000906 104.4977 255.6126 15.34386300 41186
STARLINK-35127          
1 65639U 25210T   26156.75326627  .00031315  00000+0  93348-3 0  9999
2 65639  53.1577 256.6425 0001062  96.1830 263.9294 15.34420344 41230
